[{"OBJECT_NAME":"ONEWEB-0312","OBJECT_ID":"2021-075Z","EPOCH":"2026-03-09T22:31:12.455040","MEAN_MOTION":13.17649129,"ECCENTRICITY":0.00020326,"INCLINATION":87.9153,"RA_OF_ASC_NODE":25.5826,"ARG_OF_PERICENTER":72.3463,"MEAN_ANOMALY":287.7891,"EPHEMERIS_TYPE":0,"CLASSIFICATION_TYPE":"U","NORAD_CAT_ID":49098,"ELEMENT_SET_NO":999,"REV_AT_EPOCH":22053,"BSTAR":4.8302552e-5,"MEAN_MOTION_DOT":3.2e-7,"MEAN_MOTION_DDOT":0},{"OBJECT_NAME":"SL-14 DEB","OBJECT_ID":"1991-056C","EPOCH":"2026-03-09T19:45:00.808992","MEAN_MOTION":13.18013758,"ECCENTRICITY":0.00036809,"INCLINATION":82.5539,"RA_OF_ASC_NODE":206.1276,"ARG_OF_PERICENTER":304.5802,"MEAN_ANOMALY":55.4974,"EPHEMERIS_TYPE":0,"CLASSIFICATION_TYPE":"U","NORAD_CAT_ID":45266,"ELEMENT_SET_NO":999,"REV_AT_EPOCH":29203,"BSTAR":0.00029517141,"MEAN_MOTION_DOT":1.28e-6,"MEAN_MOTION_DDOT":0}]
